CTC1_L_00193016-03
1 32268U 26254VZ  26070.40833333  .00000000  00000+0  00000-0 0  9991
2 32268  40.0000 180.0000 0000000   0.0000   0.0000 13.56072486    19
CTC1_L_00193016-04
1 32269U 24017LU  26070.40833333  .00000000  00000+0  00000-0 0  9997
2 32269  40.0000 180.0000 0000000   0.0000  90.0000 13.56072486    19
CTC1_L_00193017-01
1 32270U 24799DK  26070.40833333  .00000000  00000+0  00000-0 0  9996
2 32270  40.0000 192.0000 0000000   0.0000 192.0000 13.56072486    17
CTC1_L_00193017-02
1 32271U 23535FF  26070.40833333  .00000000  00000+0  00000-0 0  9994
2 32271  40.0000 192.0000 0000000   0.0000 282.0000 13.56072486    18
CTC1_L_00193017-03
1 32272U 25957IC  26070.40833333  .00000000  00000+0  00000-0 0  9995
2 32272  40.0000 192.0000 0000000   0.0000  12.0000 13.56072486    10
CTC1_L_00193017-04
1 32273U 25421DE  26070.40833333  .00000000  00000+0  00000-0 0  9992
2 32273  40.0000 192.0000 0000000   0.0000 102.0000 13.56072486    11
CTC1_L_00193018-01
1 32274U 22081AJ  26070.40833333  .00000000  00000+0  00000-0 0  9992
2 32274  40.0000 204.0000 0000000   0.0000 204.0000 13.56072486    19
CTC1_L_00193018-02
1 32275U 25358WS  26070.40833333  .00000000  00000+0  00000-0 0  9993
2 32275  40.0000 204.0000 0000000   0.0000 294.0000 13.56072486    19
CTC1_L_00193018-03
1 32276U 23423RX  26070.40833333  .00000000  00000+0  00000-0 0  9995
2 32276  40.0000 204.0000 0000000   0.0000  24.0000 13.56072486    11
CTC1_L_00193018-04
1 32277U 22955ID  26070.40833333  .00000000  00000+0  00000-0 0  9995
2 32277  40.0000 204.0000 0000000   0.0000 114.0000 13.56072486    12
CTC1_L_00193019-01
1 32278U 24905EH  26070.40833333  .00000000  00000+0  00000-0 0  9993
2 32278  40.0000 216.0000 0000000   0.0000 216.0000 13.56072486    19
CTC1_L_00193019-02
1 32279U 24900EX  26070.40833333  .00000000  00000+0  00000-0 0  9999
2 32279  40.0000 216.0000 0000000   0.0000 306.0000 13.56072486    10
CTC1_L_00193019-03
1 32280U 23012DX  26070.40833333  .00000000  00000+0  00000-0 0  9994
2 32280  40.0000 216.0000 0000000   0.0000  36.0000 13.56072486    12
CTC1_L_00193019-04
1 32281U 22428T   26070.40833333  .00000000  00000+0  00000-0 0  9995
2 32281  40.0000 216.0000 0000000   0.0000 126.0000 13.56072486    13
CTC1_L_00193020-01
1 32282U 25599X   26070.40833333  .00000000  00000+0  00000-0 0  9998
2 32282  40.0000 228.0000 0000000   0.0000 228.0000 13.56072486    10
CTC1_L_00193020-02
1 32283U 26368MK  26070.40833333  .00000000  00000+0  00000-0 0  9994
2 32283  40.0000 228.0000 0000000   0.0000 318.0000 13.56072486    11
CTC1_L_00193020-03
1 32284U 22856AL  26070.40833333  .00000000  00000+0  00000-0 0  9993
2 32284  40.0000 228.0000 0000000   0.0000  48.0000 13.56072486    12
CTC1_L_00193020-04
1 32285U 23323W   26070.40833333  .00000000  00000+0  00000-0 0  9994
2 32285  40.0000 228.0000 0000000   0.0000 138.0000 13.56072486    13
CTC1_L_00193021-01
1 32286U 24767UP  26070.40833333  .00000000  00000+0  00000-0 0  9998
2 32286  40.0000 240.0000 0000000   0.0000 240.0000 13.56072486    12
CTC1_L_00193021-02
1 32287U 26329QG  26070.40833333  .00000000  00000+0  00000-0 0  9995
2 32287  40.0000 240.0000 0000000   0.0000 330.0000 13.56072486    13
CTC1_L_00193021-03
1 32288U 23117HA  26070.40833333  .00000000  00000+0  00000-0 0  9998
2 32288  40.0000 240.0000 0000000   0.0000  60.0000 13.56072486    14
CTC1_L_00193021-04
1 32289U 25831PD  26070.40833333  .00000000  00000+0  00000-0 0  9994
2 32289  40.0000 240.0000 0000000   0.0000 150.0000 13.56072486    15
CTC1_L_00193022-01
1 32290U 24951PG  26070.40833333  .00000000  00000+0  00000-0 0  9998
2 32290  40.0000 252.0000 0000000   0.0000 252.0000 13.56072486    13
CTC1_L_00193022-02
1 32291U 25392AW  26070.40833333  .00000000  00000+0  00000-0 0  9999
2 32291  40.0000 252.0000 0000000   0.0000 342.0000 13.56072486    14
CTC1_L_00193022-03
1 32292U 26219PL  26070.40833333  .00000000  00000+0  00000-0 0  9999
2 32292  40.0000 252.0000 0000000   0.0000  72.0000 13.56072486    15
CTC1_L_00193022-04
1 32293U 24169OI  26070.40833333  .00000000  00000+0  00000-0 0  9992
2 32293  40.0000 252.0000 0000000   0.0000 162.0000 13.56072486    16
CTC1_L_00193023-01
1 32294U 25967GZ  26070.40833333  .00000000  00000+0  00000-0 0  9990
2 32294  40.0000 264.0000 0000000   0.0000 264.0000 13.56072486    13
CTC1_L_00193023-02
1 32295U 23634OZ  26070.40833333  .00000000  00000+0  00000-0 0  9990
2 32295  40.0000 264.0000 0000000   0.0000 354.0000 13.56072486    14
CTC1_L_00193023-03
1 32296U 22198TO  26070.40833333  .00000000  00000+0  00000-0 0  9995
2 32296  40.0000 264.0000 0000000   0.0000  84.0000 13.56072486    15
CTC1_L_00193023-04
1 32297U 26044NL  26070.40833333  .00000000  00000+0  00000-0 0  9990
2 32297  40.0000 264.0000 0000000   0.0000 174.0000 13.56072486    16
CTC1_L_00193024-01
1 32298U 26409TV  26070.40833333  .00000000  00000+0  00000-0 0  9996
2 32298  40.0000 276.0000 0000000   0.0000 276.0000 13.56072486    13
CTC1_L_00193024-02
1 32299U 22807EU  26070.40833333  .00000000  00000+0  00000-0 0  9995
2 32299  40.0000 276.0000 0000000   0.0000   6.0000 13.56072486    15
CTC1_L_00193024-03
1 32300U 23376MB  26070.40833333  .00000000  00000+0  00000-0 0  9990
2 32300  40.0000 276.0000 0000000   0.0000  96.0000 13.56072486    17
CTC1_L_00193024-04
1 32301U 24161LU  26070.40833333  .00000000  00000+0  00000-0 0  9994
2 32301  40.0000 276.0000 0000000   0.0000 186.0000 13.56072486    18
CTC1_L_00193025-01
1 32302U 22240ZG  26070.40833333  .00000000  00000+0  00000-0 0  9991
2 32302  40.0000 288.0000 0000000   0.0000 288.0000 13.56072486    15
CTC1_L_00193025-02
1 32303U 25096RF  26070.40833333  .00000000  00000+0  00000-0 0  9994
2 32303  40.0000 288.0000 0000000   0.0000  18.0000 13.56072486    17
CTC1_L_00193025-03
1 32304U 24535ZP  26070.40833333  .00000000  00000+0  00000-0 0  9992
2 32304  40.0000 288.0000 0000000   0.0000 108.0000 13.56072486    18
CTC1_L_00193025-04
1 32305U 26297TJ  26070.40833333  .00000000  00000+0  00000-0 0  9990
2 32305  40.0000 288.0000 0000000   0.0000 198.0000 13.56072486    18
CTC1_L_00193026-01
1 32306U 26005MA  26070.40833333  .00000000  00000+0  00000-0 0  9998
2 32306  40.0000 300.0000 0000000   0.0000 300.0000 13.56072486    19
CTC1_L_00193026-02
1 32307U 23431OY  26070.40833333  .00000000  00000+0  00000-0 0  9999
2 32307  40.0000 300.0000 0000000   0.0000  30.0000 13.56072486    10
CTC1_L_00193026-03
1 32308U 22119KY  26070.40833333  .00000000  00000+0  00000-0 0  9992
2 32308  40.0000 300.0000 0000000   0.0000 120.0000 13.56072486    11
CTC1_L_00193026-04
1 32309U 24968OY  26070.40833333  .00000000  00000+0  00000-0 0  9997
2 32309  40.0000 300.0000 0000000   0.0000 210.0000 13.56072486    12
CTC1_L_00193027-01
1 32310U 22814ZL  26070.40833333  .00000000  00000+0  00000-0 0  9997
2 32310  40.0000 312.0000 0000000   0.0000 312.0000 13.56072486    10
CTC1_L_00193027-02
1 32311U 22272QA  26070.40833333  .00000000  00000+0  00000-0 0  9996
2 32311  40.0000 312.0000 0000000   0.0000  42.0000 13.56072486    11
CTC1_L_00193027-03
1 32312U 24223YY  26070.40833333  .00000000  00000+0  00000-0 0  9995
2 32312  40.0000 312.0000 0000000   0.0000 132.0000 13.56072486    12
CTC1_L_00193027-04
1 32313U 26216RB  26070.40833333  .00000000  00000+0  00000-0 0  9990
2 32313  40.0000 312.0000 0000000   0.0000 222.0000 13.56072486    13
CTC1_L_00193028-01
1 32314U 23131CW  26070.40833333  .00000000  00000+0  00000-0 0  9994
2 32314  40.0000 324.0000 0000000   0.0000 324.0000 13.56072486    10
CTC1_L_00193028-02
1 32315U 25787VD  26070.40833333  .00000000  00000+0  00000-0 0  9994
2 32315  40.0000 324.0000 0000000   0.0000  54.0000 13.56072486    11
CTC1_L_00193028-03
1 32316U 24715BG  26070.40833333  .00000000  00000+0  00000-0 0  9995
2 32316  40.0000 324.0000 0000000   0.0000 144.0000 13.56072486    12
CTC1_L_00193028-04
1 32317U 26175QE  26070.40833333  .00000000  00000+0  00000-0 0  9998
2 32317  40.0000 324.0000 0000000   0.0000 234.0000 13.56072486    13
CTC1_L_00193029-01
1 32318U 22675IA  26070.40833333  .00000000  00000+0  00000-0 0  9990
2 32318  40.0000 336.0000 0000000   0.0000 336.0000 13.56072486    10
CTC1_L_00193029-02
1 32319U 24241DI  26070.40833333  .00000000  00000+0  00000-0 0  9992
2 32319  40.0000 336.0000 0000000   0.0000  66.0000 13.56072486    11
CTC1_L_00193029-03
1 32320U 25536ZE  26070.40833333  .00000000  00000+0  00000-0 0  9992
2 32320  40.0000 336.0000 0000000   0.0000 156.0000 13.56072486    13
CTC1_L_00193029-04
1 32321U 22942KM  26070.40833333  .00000000  00000+0  00000-0 0  9991
2 32321  40.0000 336.0000 0000000   0.0000 246.0000 13.56072486    14
CTC1_L_00193030-01
1 32322U 25016RI  26070.40833333  .00000000  00000+0  00000-0 0  9997
2 32322  40.0000 348.0000 0000000   0.0000 348.0000 13.56072486    11
CTC1_L_00193030-02
1 32323U 22325YX  26070.40833333  .00000000  00000+0  00000-0 0  9998
2 32323  40.0000 348.0000 0000000   0.0000  78.0000 13.56072486    12
CTC1_L_00193030-03
1 32324U 24620YA  26070.40833333  .00000000  00000+0  00000-0 0  9999
2 32324  40.0000 348.0000 0000000   0.0000 168.0000 13.56072486    13
CTC1_L_00193030-04
1 32325U 23579RX  26070.40833333  .00000000  00000+0  00000-0 0  9992
2 32325  40.0000 348.0000 0000000   0.0000 258.0000 13.56072486    14
